NORAD_CAT_ID,OBJECT_NAME,OBJECT_TYPE,EPOCH,MEAN_MOTION,ECCENTRICITY,INCLINATION,RA_OF_ASC_NODE,ARG_OF_PERICENTER,MEAN_ANOMALY,BSTAR,MEAN_MOTION_DOT,MEAN_MOTION_DDOT,TLE_LINE0,TLE_LINE1,TLE_LINE2,SEMIMAJOR_AXIS,PERIOD,APOGEE,PERIGEE,DECAYED
51755.0,STARLINK-3460,PAYLOAD,2024-07-10 04:56:24,15.08822291,0.0001528,53.2181,156.2278,110.4981,249.6176,2.5103e-05,1.11e-06,0.0,0 STARLINK-3460,1 51755U 22016AT  24192.20584008  .00000111  00000-0  25103-4 0  9997,2 51755  53.2181 156.2278 0001528 110.4981 249.6176 15.08822291133118,6917.935,95.439,540.857,538.742,0.0
51755.0,STARLINK-3460,PAYLOAD,2024-07-10 14:28:42,15.08837626,0.0001493,53.2177,154.4415,96.0573,264.0589,2.4953e-06,-2.48e-06,0.0,0 STARLINK-3460,1 51755U 22016AT  24192.60327326 -.00000248  00000-0  24953-5 0  9994,2 51755  53.2177 154.4415 0001493  96.0573 264.0589 15.08837626132052,6917.888,95.438,540.785,538.72,0.0
51755.0,STARLINK-3460,PAYLOAD,2024-07-11 06:22:34,15.08840885,0.0001406,53.217,151.4659,89.2461,270.8692,8.081e-05,9.98e-06,0.0,0 STARLINK-3460,1 51755U 22016AT  24193.26567184  .00000998  00000-0  80810-4 0  9999,2 51755  53.2170 151.4659 0001406  89.2461 270.8692 15.08840885132158,6917.878,95.437,540.715,538.77,0.0
51755.0,STARLINK-3460,PAYLOAD,2024-07-12 04:37:58,15.08840329,0.0001387,53.2166,147.302,85.0594,275.0556,0.00010008,1.305e-05,0.0,0 STARLINK-3460,1 51755U 22016AT  24194.19303279  .00001305  00000-0  10008-3 0  9999,2 51755  53.2166 147.3020 0001387  85.0594 275.0556 15.08840329133417,6917.879,95.438,540.704,538.785,0.0
51755.0,STARLINK-3460,PAYLOAD,2024-07-12 14:10:16,15.0884793,0.0001344,53.2171,145.517,84.1734,275.9412,0.00011058,1.473e-05,0.0,0 STARLINK-3460,1 51755U 22016AT  24194.59046704  .00001473  00000-0  11058-3 0  9992,2 51755  53.2171 145.5170 0001344  84.1734 275.9412 15.08847930132355,6917.856,95.437,540.651,538.791,0.0
51755.0,STARLINK-3460,PAYLOAD,2024-07-12 20:31:50,15.08831462,0.0001265,53.2173,144.3285,91.8652,268.2485,6.1534e-06,-1.9e-06,0.0,0 STARLINK-3460,1 51755U 22016AT  24194.85543992 -.00000190  00000-0  61534-5 0  9994,2 51755  53.2173 144.3285 0001265  91.8652 268.2485 15.08831462133514,6917.906,95.438,540.647,538.896,0.0
51755.0,STARLINK-3460,PAYLOAD,2024-07-13 02:53:22,15.08836918,0.0001122,53.2161,143.1384,96.6766,263.4354,6.7635e-05,7.89e-06,0.0,0 STARLINK-3460,1 51755U 22016AT  24195.12039403  .00000789  00000-0  67635-4 0  9992,2 51755  53.2161 143.1384 0001122  96.6766 263.4354 15.08836918133556,6917.89,95.438,540.531,538.979,0.0
51755.0,STARLINK-3460,PAYLOAD,2024-07-13 14:01:02,15.08852926,0.0001298,53.2167,141.0563,98.8562,261.2577,8.4441e-05,1.057e-05,0.0,0 STARLINK-3460,1 51755U 22016AT  24195.58406177  .00001057  00000-0  84441-4 0  9991,2 51755  53.2167 141.0563 0001298  98.8562 261.2577 15.08852926132504,6917.841,95.437,540.604,538.808,0.0
51755.0,STARLINK-3460,PAYLOAD,2024-07-13 20:22:36,15.08842628,0.000178,53.2172,139.8674,87.4232,272.6964,3.464e-05,2.63e-06,0.0,0 STARLINK-3460,1 51755U 22016AT  24195.84903130  .00000263  00000-0  34640-4 0  9995,2 51755  53.2172 139.8674 0001780  87.4232 272.6964 15.08842628132540,6917.872,95.437,540.969,538.506,0.0
51755.0,STARLINK-3460,PAYLOAD,2024-07-14 05:54:54,15.08843919,0.0001463,53.2172,138.083,94.1319,265.9841,4.2347e-05,3.86e-06,0.0,0 STARLINK-3460,1 51755U 22016AT  24196.24646904  .00000386  00000-0  42347-4 0  9992,2 51755  53.2172 138.0830 0001463  94.1319 265.9841 15.08843919133728,6917.868,95.437,540.745,538.721,0.0
51755.0,STARLINK-3460,PAYLOAD,2024-07-15 02:34:56,15.08829139,0.0001229,53.2162,134.2139,107.3091,252.8036,0.00010383,1.365e-05,0.0,0 STARLINK-3460,1 51755U 22016AT  24197.10759744  .00001365  00000-0  10383-3 0  9997,2 51755  53.2162 134.2139 0001229 107.3091 252.8036 15.08829139133854,6917.914,95.438,540.629,538.928,0.0
51755.0,STARLINK-3460,PAYLOAD,2024-07-16 05:36:29,15.08836836,0.000132,53.2171,129.1656,97.3229,262.7913,7.7991e-05,9.53e-06,0.0,0 STARLINK-3460,1 51755U 22016AT  24198.23367598  .00000953  00000-0  77991-4 0  9995,2 51755  53.2171 129.1656 0001320  97.3229 262.7913 15.08836836134020,6917.89,95.438,540.668,538.842,0.0
51755.0,STARLINK-3460,PAYLOAD,2024-07-17 11:48:48,15.08851874,0.0001088,53.2167,123.5162,85.6754,274.4362,0.00023951,3.527e-05,0.0,0 STARLINK-3460,1 51755U 22016AT  24199.49222606  .00003527  00000-0  23951-3 0  9990,2 51755  53.2167 123.5162 0001088  85.6754 274.4362 15.08851874134217,6917.844,95.437,540.462,538.956,0.0
51755.0,STARLINK-3460,PAYLOAD,2024-07-17 22:56:32,15.08829576,0.0001152,53.2173,121.4342,86.1531,273.9593,-7.4485e-05,-1.473e-05,0.0,0 STARLINK-3460,1 51755U 22016AT  24199.95592979 -.00001473  00000-0 -74485-4 0  9993,2 51755  53.2173 121.4342 0001152  86.1531 273.9593 15.08829576133169,6917.912,95.438,540.574,538.98,0.0
51755.0,STARLINK-3460,PAYLOAD,2024-07-18 00:31:54,15.0882979,0.0001339,53.217,121.1368,82.1637,277.9507,-0.00017313,-3.041e-05,0.0,0 STARLINK-3460,1 51755U 22016AT  24200.02216211 -.00003041  00000-0 -17313-3 0  9995,2 51755  53.2170 121.1368 0001339  82.1637 277.9507 15.08829790134293,6917.912,95.438,540.703,538.85,0.0
51755.0,STARLINK-3460,PAYLOAD,2024-07-18 22:47:19,15.08830909,0.0001527,53.2176,116.9705,74.6124,285.5036,9.7822e-05,1.269e-05,0.0,0 STARLINK-3460,1 51755U 22016AT  24200.94952809  .00001269  00000-0  97822-4 0  9998,2 51755  53.2176 116.9705 0001527  74.6124 285.5036 15.08830909133310,6917.908,95.438,540.83,538.717,0.0
51755.0,STARLINK-3460,PAYLOAD,2024-07-19 03:33:28,15.08840637,0.0001523,53.2172,116.0747,74.9445,285.1715,8.5587e-05,1.074e-05,0.0,0 STARLINK-3460,1 51755U 22016AT  24201.14824351  .00001074  00000-0  85587-4 0  9990,2 51755  53.2172 116.0747 0001523  74.9445 285.1715 15.08840637134464,6917.878,95.438,540.797,538.69,0.0
51755.0,STARLINK-3460,PAYLOAD,2024-07-19 11:30:23,15.08854283,0.0001527,53.217,114.5906,66.9674,293.1479,0.00020187,2.927e-05,0.0,0 STARLINK-3460,1 51755U 22016AT  24201.47943585  .00002927  00000-0  20187-3 0  9999,2 51755  53.2170 114.5906 0001527  66.9674 293.1479 15.08854283134515,6917.837,95.437,540.758,538.645,0.0
51755.0,STARLINK-3460,PAYLOAD,2024-07-19 22:38:06,15.08831371,0.0001587,53.2177,112.5097,72.3719,287.7447,0.00016248,2.298e-05,0.0,0 STARLINK-3460,1 51755U 22016AT  24201.94312975  .00002298  00000-0  16248-3 0  9998,2 51755  53.2177 112.5097 0001587  72.3719 287.7447 15.08831371133468,6917.907,95.438,540.87,538.674,0.0
51755.0,STARLINK-3460,PAYLOAD,2024-07-20 03:24:15,15.08848108,0.000138,53.2173,111.618,83.2367,276.8782,0.00029223,4.367e-05,0.0,0 STARLINK-3460,1 51755U 22016AT  24202.14184187  .00004367  00000-0  29223-3 0  9999,2 51755  53.2173 111.6180 0001380  83.2367 276.8782 15.08848108134613,6917.856,95.437,540.675,538.766,0.0
51755.0,STARLINK-3460,PAYLOAD,2024-07-20 11:21:10,15.08854887,0.0001417,53.2172,110.1317,87.354,272.7614,0.00042967,6.56e-05,0.0,0 STARLINK-3460,1 51755U 22016AT  24202.47303948  .00006560  00000-0  42967-3 0  9990,2 51755  53.2172 110.1317 0001417  87.3540 272.7614 15.08854887133548,6917.835,95.437,540.68,538.72,0.0
51755.0,STARLINK-3460,PAYLOAD,2024-07-20 22:28:53,15.08836837,0.0001286,53.2163,108.0485,109.5014,250.6117,-6.2294e-06,-3.87e-06,0.0,0 STARLINK-3460,1 51755U 22016AT  24202.93672497 -.00000387  00000-0 -62294-5 0  9999,2 51755  53.2163 108.0485 0001286 109.5014 250.6117 15.08836837133613,6917.89,95.438,540.645,538.865,0.0
51755.0,STARLINK-3460,PAYLOAD,2024-07-21 03:15:02,15.08844453,0.0001524,53.2168,107.1525,110.1682,249.9475,0.00016497,2.339e-05,0.0,0 STARLINK-3460,1 51755U 22016AT  24203.13544153  .00002339  00000-0  16497-3 0  9998,2 51755  53.2168 107.1525 0001524 110.1682 249.9475 15.08844453134765,6917.867,95.437,540.786,538.677,0.0
51755.0,STARLINK-3460,PAYLOAD,2024-07-21 22:19:40,15.08841536,0.000169,53.2162,103.5836,119.1763,240.9399,0.00027428,4.08e-05,0.0,0 STARLINK-3460,1 51755U 22016AT  24203.93032461  .00004080  00000-0  27428-3 0  9991,2 51755  53.2162 103.5836 0001690 119.1763 240.9399 15.08841536133761,6917.876,95.437,540.91,538.572,0.0
51755.0,STARLINK-3460,PAYLOAD,2024-07-21 23:55:03,15.08840789,0.000164,53.2164,103.2868,117.0735,243.0425,0.00017766,2.541e-05,0.0,0 STARLINK-3460,1 51755U 22016AT  24203.99656528  .00002541  00000-0  17766-3 0  9997,2 51755  53.2164 103.2868 0001640 117.0735 243.0425 15.08840789134894,6917.878,95.438,540.878,538.608,0.0
51755.0,STARLINK-3460,PAYLOAD,2024-07-22 22:10:26,15.08848299,0.0001473,53.216,99.1241,117.7364,242.3777,0.00033137,4.991e-05,0.0,0 STARLINK-3460,1 51755U 22016AT  24204.92392312  .00004991  00000-0  33137-3 0  9990,2 51755  53.2160  99.1241 0001473 117.7364 242.3777 15.08848299133915,6917.855,95.437,540.739,538.701,0.0
51755.0,STARLINK-3460,PAYLOAD,2024-07-23 02:56:36,15.08849453,0.0001489,53.2163,98.2324,117.8431,242.2713,0.00028674,4.28e-05,0.0,0 STARLINK-3460,1 51755U 22016AT  24205.12264177  .00004280  00000-0  28674-3 0  9991,2 51755  53.2163  98.2324 0001489 117.8431 242.2713 15.08849453135063,6917.851,95.437,540.747,538.686,0.0
51755.0,STARLINK-3460,PAYLOAD,2024-07-24 17:05:52,15.08837034,0.0002995,53.2154,91.1,103.8483,256.2842,5.1892e-05,5.37e-06,0.0,0 STARLINK-3460,1 51755U 22016AT  24206.71240796  .00000537  00000-0  51892-4 0  9998,2 51755  53.2154  91.1000 0002995 103.8483 256.2842 15.08837034135308,6917.889,95.438,541.826,537.683,0.0
51755.0,STARLINK-3460,PAYLOAD,2024-07-25 21:42:47,15.08879882,0.0001113,53.2156,85.7484,56.4192,303.6906,0.00071377,0.00011102,0.0,0 STARLINK-3460,1 51755U 22016AT  24207.90471505  .00011102  00000-0  71377-3 0  9993,2 51755  53.2156  85.7484 0001113  56.4192 303.6906 15.08879882134366,6917.758,95.435,540.393,538.854,0.0
51755.0,STARLINK-3460,PAYLOAD,2024-07-26 00:53:34,15.08843049,9.97e-05,53.2135,85.1521,83.0994,277.0112,8.2705e-05,1.029e-05,0.0,0 STARLINK-3460,1 51755U 22016AT  24208.03721049  .00001029  00000-0  82705-4 0  9994,2 51755  53.2135  85.1521 0000997  83.0994 277.0112 15.08843049135500,6917.871,95.437,540.426,539.046,0.0
